SatCatId,ObjectName,LaunchYear,OrbitalPeriod,LaunchMass,StatusCode,Inclination,Status,UcsData,OrbitClassEstimated,LaunchSiteCountry,Owner,UseType,Purpose,LaunchVehicleClass,TLE1,TLE2,MeanMotion,Eccentricity,OrbitClass
13124,COSMOS 1348,1982,718.65,-1.0,UNK,71.92,Inactive,0,MEO,Russia,Russia/USSR,Unknown,Unknown,Unknown,1 13124U 82029A   25161.38020608 -.00000213  00000+0  00000+0 0  9999,2 13124  71.9181 159.0875 5053630 343.2341  30.0797  2.00375693315940,2.00375693,0.505363,MEO
13127,COSMOS 1349,1982,104.8,-1.0,UNK,82.93,Inactive,0,LEO,Russia,Russia/USSR,Unknown,Unknown,Unknown,1 13127U 82030A   25164.52556851  .00000088  00000+0  77537-4 0  9990,2 13127  82.9299  75.3952 0030473 346.0302 187.0825 13.73993081164681,13.73993081,0.0030473,LEO
13129,INSAT-1A,1982,1436.09,-1.0,-,7.97,Inactive,0,GSO,USA,India,Unknown,Unknown,Unknown,1 13129U 82031A   25163.99400715  .00000158  00000+0  00000+0 0  9994,2 13129   7.9647 301.3492 0013411  99.0682 246.1877  1.00272265162725,1.00272265,0.0013411,GSO
29516,SINOSAT 2 (XINNUO 2),2006,1550.35,-1.0,-,13.51,Inactive,0,HEO,PRC,China,Unknown,Unknown,Unknown,1 29516U 06048A   25164.47870222 -.00000119  00000+0  00000+0 0  9991,2 29516  13.5126  58.4509 0034903 276.6293 252.4196  0.92882220 63986,0.9288222,0.0034903,HEO
29520,XM-4 (BLUES),2006,1457.3,5193.0,-,1.89,Inactive,1,GSO,Sea Launch Platform,USA,Commercial,Communications,Zenit,1 29520U 06049A   25164.17822753  .00000046  00000+0  00000+0 0  9998,2 29520   1.8852  85.9417 0008764 319.2040 325.6830  0.98813161 47692,0.98813161,0.0008764,GSO
4952,TANSEI-1 (MS-T1),1971,105.99,-1.0,-,29.67,Inactive,0,LEO,Japan,Japan,Unknown,Unknown,Unknown,1 04952U 71011A   25164.19997245  .00000093  00000+0  34144-4 0  9995,2 04952  29.6680  68.8945 0079709 207.3032 292.5255 13.58613417698318,13.58613417,0.0079709,LEO
4953,OPS 5268 (DMSP 5A F3),1971,99.87,-1.0,-,98.53,Inactive,0,LEO,USA,USA,Unknown,Unknown,Unknown,1 04953U 71012A   25164.54994808  .00000355  00000+0  12087-3 0  9990,2 04953  98.5340  30.3887 0038651  94.1573 266.4034 14.41885394845653,14.41885394,0.0038651,LEO
13148,COSMOS 1354,1982,100.51,-1.0,UNK,74.04,Inactive,0,LEO,Russia,Russia/USSR,Unknown,Unknown,Unknown,1 13148U 82037A   25163.99673819  .00000117  00000+0  52668-4 0  9995,2 13148  74.0388  59.7499 0009933 313.2545  46.7776 14.32670171252186,14.32670171,0.0009933,LEO
4964,COSMOS 397,1971,112.96,-1.0,UNK,65.72,Inactive,0,LEO,Kazakhstan,Russia/USSR,Unknown,Unknown,Unknown,1 04964U 71015A   25164.42137930  .00000093  00000+0  81820-4 0  9998,2 04964  65.7206 178.1781 1022520  23.6394 340.8333 12.74821958621249,12.74821958,0.102252,LEO
13160,COSMOS 1357,1982,114.64,-1.0,UNK,74.01,Inactive,0,LEO,Russia,Russia/USSR,Unknown,Unknown,Unknown,1 13160U 82040A   25164.56118280  .00000005  00000+0  13116-3 0  9993,2 13160  74.0098 205.8997 0050233 327.9900 146.3540 12.56059372976436,12.56059372,0.0050233,LEO
37737,TIANLIAN 1-02,2011,1454.55,2250.0,-,4.62,Inactive,1,GSO,PRC,China,Government,Communications,Long March,1 37737U 11032A   25164.32124763 -.00000203  00000+0  00000+0 0  9994,2 37737   4.6236  70.6083 0005222 271.1266  23.6796  0.98999884 40449,0.98999884,0.0005222,GSO
13161,COSMOS 1358,1982,114.83,-1.0,UNK,74.01,Inactive,0,LEO,Russia,Russia/USSR,Unknown,Unknown,Unknown,1 13161U 82040B   25164.63766461 -.00000009  00000+0  41620-4 0  9999,2 13161  74.0125 287.3117 0041514  72.5510 299.6017 12.53988417973132,12.53988417,0.0041514,LEO
13162,COSMOS 1359,1982,115.01,-1.0,UNK,74.01,Inactive,0,LEO,Russia,Russia/USSR,Unknown,Unknown,Unknown,1 13162U 82040C   25164.62533014 -.00000008  00000+0  49147-4 0  9996,2 13162  74.0131   4.2589 0030970 163.1912 255.5154 12.52034678971474,12.52034678,0.003097,LEO
13163,COSMOS 1360,1982,115.18,-1.0,UNK,74.01,Inactive,0,LEO,Russia,Russia/USSR,Unknown,Unknown,Unknown,1 13163U 82040D   25164.52825670  .00000003  00000+0  12337-3 0  9992,2 13163  74.0125  76.2795 0023377 256.1076 277.4969 12.50192152691705,12.50192152,0.0023377,LEO
13164,COSMOS 1361,1982,115.37,-1.0,UNK,74.01,Inactive,0,LEO,Russia,Russia/USSR,Unknown,Unknown,Unknown,1 13164U 82040E   25164.46346420 -.00000025  00000+0 -60479-4 0  9994,2 13164  74.0092 154.3305 0014130   2.2797 119.2554 12.48204237964106,12.48204237,0.001413,LEO
13165,COSMOS 1362,1982,115.56,-1.0,UNK,74.01,Inactive,0,LEO,Russia,Russia/USSR,Unknown,Unknown,Unknown,1 13165U 82040F   25164.55046606  .00000020  00000+0  24629-3 0  9997,2 13165  74.0108 233.5800 0017554 137.9527 332.9692 12.46154065960794,12.46154065,0.0017554,LEO
13166,COSMOS 1363,1982,115.74,-1.0,UNK,74.01,Inactive,0,LEO,Russia,Russia/USSR,Unknown,Unknown,Unknown,1 13166U 82040G   25164.54261603 -.00000016  00000+0 -77565-6 0  9990,2 13166  74.0125 311.1633 0019785 261.3793 167.0608 12.44155455957697,12.44155455,0.0019785,LEO
13167,COSMOS 1364,1982,115.95,-1.0,UNK,74.01,Inactive,0,LEO,Russia,Russia/USSR,Unknown,Unknown,Unknown,1 13167U 82040H   25164.60231422  .00000007  00000+0  16153-3 0  9995,2 13167  74.0134  39.1709 0032039   5.5908  17.9837 12.41883761954219,12.41883761,0.0032039,LEO
37746,GSAT-12,2011,1456.6,1410.0,-,4.34,Inactive,1,GSO,India,India,Government,Communications,PSLV,1 37746U 11034A   25164.46360977  .00000005  00000+0  00000+0 0  9999,2 37746   4.3411  80.8988 0003956 151.4756  46.7184  0.98860676 39681,0.98860676,0.0003956,GSO
13172,OPS 6553,1982,95.85,-1.0,UNK,95.97,Inactive,0,LEO,USA,USA,Unknown,Unknown,Unknown,1 13172U 82041C   25164.54386146  .00005749  00000+0  43740-3 0  9999,2 13172  95.9748 356.3557 0007082 111.9567 248.2415 15.02350995 60246,15.02350995,0.0007082,LEO
13175,COSMOS 1365,1982,103.62,-1.0,UNK,65.07,Inactive,0,LEO,Kazakhstan,Russia/USSR,Unknown,Unknown,Unknown,1 13175U 82043A   25164.50166133 -.00000054  00000+0  28375-4 0  9995,2 13175  65.0688  86.8961 0057142 189.7805 342.9577 13.89755289188727,13.89755289,0.0057142,LEO
13177,COSMOS 1366,1982,1436.22,-1.0,UNK,9.14,Inactive,0,GSO,Kazakhstan,Russia/USSR,Unknown,Unknown,Unknown,1 13177U 82044A   25164.61996209 -.00000015  00000+0  00000+0 0  9992,2 13177   9.1397 300.7877 0009264 123.0692 130.2418  1.00263570129911,1.0026357,0.0009264,GSO
37755,SPEKTR-R,2011,14530.55,3660.0,-,82.04,Inactive,1,HEO,Kazakhstan,Russia/USSR,Government,Space Science,Zenit,1 37755U 11037A   25158.92435394 -.00001558  00000+0  00000+0 0  9997,2 37755  82.0356 323.6587 5801311 334.4327 356.4628  0.09910153  5492,0.09910153,0.5801311,HEO
21392,AURORA 2,1991,1454.33,-1.0,UNK,14.53,Inactive,0,GSO,USA,USA,Unknown,Unknown,Unknown,1 21392U 91037A   25164.59806257  .00000052  00000+0  00000+0 0  9992,2 21392  14.5354   7.9896 0003607 246.7285 273.7076  0.99015726123085,0.99015726,0.0003607,GSO
13205,COSMOS 1367,1982,718.09,-1.0,UNK,71.78,Inactive,0,MEO,Russia,Russia/USSR,Unknown,Unknown,Unknown,1 13205U 82045A   25162.59934081 -.00000122  00000+0  00000+0 0  9999,2 13205  71.7813  80.6905 5033590 334.2289   7.5600  2.00531811315383,2.00531811,0.503359,MEO
21397,OKEAN-3,1991,95.82,-1.0,UNK,82.52,Inactive,0,LEO,Russia,Russia/USSR,Unknown,Unknown,Unknown,1 21397U 91039A   25164.57109262  .00003115  00000+0  23041-3 0  9996,2 21397  82.5179 237.1246 0015523 161.2934 198.8865 15.02768031824599,15.02768031,0.0015523,LEO
37788,EDUSAT,2011,97.59,-1.0,-,98.31,Inactive,0,LEO,Russia,Italy,Unknown,Unknown,Unknown,1 37788U 11044A   25164.59720818  .00001056  00000+0  16193-3 0  9995,2 37788  98.3124  47.8437 0034166 215.3345 209.1860 14.75517512742151,14.75517512,0.0034166,LEO
37794,SICH-2,2011,98.3,-1.0,-,97.8,Inactive,0,LEO,Russia,Ukraine,Unknown,Unknown,Unknown,1 37794U 11044G   25164.53102398  .00000695  00000+0  13823-3 0  9998,2 37794  97.8023 157.9467 0010639 260.7041 211.7988 14.64945830737477,14.6494583,0.0010639,LEO
37795,BPA-2 & SL-24 R/B,2011,104.95,-1.0,UNK,98.19,Inactive,0,LEO,Russia,Ukraine,Unknown,Unknown,Unknown,1 37795U 11044H   25164.30880869  .00000063  00000+0  60262-4 0  9999,2 37795  98.1885 311.3358 0407869 206.0413 215.2638 13.72125397692246,13.72125397,0.0407869,LEO
21418,COSMOS 2150,1991,100.52,-1.0,UNK,74.04,Inactive,0,LEO,Russia,Russia/USSR,Unknown,Unknown,Unknown,1 21418U 91041A   25164.47384851  .00000164  00000+0  69956-4 0  9998,2 21418  74.0374  65.5034 0017847 301.4925  58.4481 14.32503147776186,14.32503147,0.0017847,LEO
37804,ZHONGXING-1A,2011,1439.7,5200.0,-,2.76,Inactive,1,GSO,PRC,China,Military,Communications,Long March,1 37804U 11047A   25163.90091566 -.00000170  00000+0  00000+0 0  9995,2 37804   2.7644  83.1185 0003684 333.9132 259.8381  1.00021121 23636,1.00021121,0.0003684,GSO
37806,COSMOS 2473,2011,1437.18,-1.0,-,4.63,Inactive,0,GSO,Kazakhstan,Russia/USSR,Unknown,Unknown,Unknown,1 37806U 11048A   25162.56635837 -.00000260  00000+0  00000+0 0  9994,2 37806   4.6319  78.0900 0004108 116.1939 205.9402  1.00196329  3754,1.00196329,0.0004108,GSO
21422,COSMOS 2151,1991,96.07,-1.0,UNK,82.5,Inactive,0,LEO,Russia,Russia/USSR,Unknown,Unknown,Unknown,1 21422U 91042A   25164.54572576  .00001663  00000+0  13552-3 0  9990,2 21422  82.4970 342.9572 0011195 246.7163 113.2882 14.98841948844019,14.98841948,0.0011195,LEO
21426,MOLNIYA 1-81,1991,717.81,-1.0,UNK,63.44,Inactive,0,MEO,Russia,Russia/USSR,Unknown,Unknown,Unknown,1 21426U 91043A   25164.19034650  .00000172  00000+0  00000+0 0  9996,2 21426  63.4399 217.4358 6749915 260.8198  23.2369  2.00609356249063,2.00609356,0.6749915,MEO
13241,COSMOS 1371,1982,100.53,-1.0,UNK,74.04,Inactive,0,LEO,Russia,Russia/USSR,Unknown,Unknown,Unknown,1 13241U 82051A   25164.55743875  .00000143  00000+0  62455-4 0  9992,2 13241  74.0418 200.1131 0012625  28.4263 331.7574 14.32472389246663,14.32472389,0.0012625,LEO
5050,COSMOS 400,1971,104.94,-1.0,UNK,65.83,Inactive,0,LEO,Russia,Russia/USSR,Unknown,Unknown,Unknown,1 05050U 71020A   25164.64137979 -.00000072  00000+0  88836-5 0  9991,2 05050  65.8261  19.0350 0014985 289.6458 138.2058 13.72194664717383,13.72194664,0.0014985,LEO
